start=new Date('2021-12-13T00:00:00.000Z').valueOf();
sats=[{"SITE":"AFETR","ARG_OF_PERICENTER":"88.1889","INCLINATION":"53.0536","EPHEMERIS_TYPE":"0","TIME_SYSTEM":"UTC","EPOCH":"2021-12-12T19:25:00.291360","OBJECT_ID":"2021-012BG","REF_FRAME":"TEME","APOAPSIS":"548.802","ECCENTRICITY":"0.00023060","LAUNCH_DATE":"2021-02-16","MEAN_MOTION_DOT":"0.00000450","PERIAPSIS":"545.608","COUNTRY_CODE":"US","TLE_LINE2":"2 47674  53.0536 160.3127 0002306  88.1889 271.9365 15.06402859 46963","CLASSIFICATION_TYPE":"U","GP_ID":"191586607","TLE_LINE1":"1 47674U 21012BG  21346.80903115  .00000450  00000-0  49096-4 0  9998","ELEMENT_SET_NO":"999","SEMIMAJOR_AXIS":"6925.340","OBJECT_TYPE":"PAYLOAD","OBJECT_NAME":"STARLINK-2067","MEAN_MOTION_DDOT":"0.0000000000000","MEAN_ANOMALY":"271.9365","MEAN_MOTION":"15.06402859","FILE":"3238376","RA_OF_ASC_NODE":"160.3127","REV_AT_EPOCH":"4696","CENTER_NAME":"EARTH","NORAD_CAT_ID":"47674","DECAY_DATE":null,"PERIOD":"95.592","RCS_SIZE":"LARGE","MEAN_ELEMENT_THEORY":"SGP4","BSTAR":"0.00004909600000"},{"MEAN_ANOMALY":"273.0427","MEAN_MOTION":"15.06393463","REV_AT_EPOCH":"4697","RA_OF_ASC_NODE":"160.0561","FILE":"3238376","BSTAR":"0.00003497000000","MEAN_ELEMENT_THEORY":"SGP4","DECAY_DATE":null,"RCS_SIZE":"LARGE","PERIOD":"95.593","NORAD_CAT_ID":"47675","CENTER_NAME":"EARTH","TLE_LINE1":"1 47675U 21012BH  21346.86803449  .00000239  00000-0  34970-4 0  9994","ELEMENT_SET_NO":"999","SEMIMAJOR_AXIS":"6925.369","GP_ID":"191586859","CLASSIFICATION_TYPE":"U","TLE_LINE2":"2 47675  53.0545 160.0561 0002441  87.0841 273.0427 15.06393463 46972","OBJECT_NAME":"STARLINK-2078","MEAN_MOTION_DDOT":"0.0000000000000","OBJECT_TYPE":"PAYLOAD","ECCENTRICITY":"0.00024410","LAUNCH_DATE":"2021-02-16","PERIAPSIS":"545.543","MEAN_MOTION_DOT":"0.00000239","COUNTRY_CODE":"US","EPHEMERIS_TYPE":"0","INCLINATION":"53.0545","ARG_OF_PERICENTER":"87.0841","SITE":"AFETR","EPOCH":"2021-12-12T20:49:58.179936","TIME_SYSTEM":"UTC","APOAPSIS":"548.924","REF_FRAME":"TEME","OBJECT_ID":"2021-012BH"},{"SITE":"AFETR","ARG_OF_PERICENTER":"40.9625","INCLINATION":"53.0546","EPHEMERIS_TYPE":"0","OBJECT_ID":"2021-012BJ","REF_FRAME":"TEME","APOAPSIS":"422.177","TIME_SYSTEM":"UTC","EPOCH":"2021-12-12T22:00:01.999584","LAUNCH_DATE":"2021-02-16","ECCENTRICITY":"0.00015450","COUNTRY_CODE":"US","MEAN_MOTION_DOT":"-0.00916610","PERIAPSIS":"420.076","TLE_LINE2":"2 47676  53.0546  52.9181 0001545  40.9625  53.0070 15.48496051  3687","CLASSIFICATION_TYPE":"U","GP_ID":"191587105","TLE_LINE1":"1 47676U 21012BJ  21346.91668981 -.00916610  00000-0 -18432-1 0  9994","ELEMENT_SET_NO":"999","SEMIMAJOR_AXIS":"6799.262","OBJECT_TYPE":"PAYLOAD","MEAN_MOTION_DDOT":"0.0000000000000","OBJECT_NAME":"STARLINK-2083","MEAN_MOTION":"15.48496051","MEAN_ANOMALY":"53.0070","CENTER_NAME":"EARTH","NORAD_CAT_ID":"47676","RCS_SIZE":"LARGE","DECAY_DATE":null,"PERIOD":"92.993","MEAN_ELEMENT_THEORY":"SGP4","BSTAR":"-0.01843200000000","FILE":"3238376","RA_OF_ASC_NODE":"52.9181","REV_AT_EPOCH":"368"},{"COUNTRY_CODE":"US","MEAN_MOTION_DOT":"0.00000391","PERIAPSIS":"545.664","LAUNCH_DATE":"2021-02-16","ECCENTRICITY":"0.00022170","APOAPSIS":"548.735","OBJECT_ID":"2021-012BK","REF_FRAME":"TEME","EPOCH":"2021-12-12T20:31:21.332928","TIME_SYSTEM":"UTC","INCLINATION":"53.0546","EPHEMERIS_TYPE":"0","SITE":"AFETR","ARG_OF_PERICENTER":"85.8852","DECAY_DATE":null,"PERIOD":"95.592","RCS_SIZE":"LARGE","MEAN_ELEMENT_THEORY":"SGP4","BSTAR":"0.00004515500000","CENTER_NAME":"EARTH","NORAD_CAT_ID":"47677","REV_AT_EPOCH":"4668","FILE":"3238376","RA_OF_ASC_NODE":"180.1208","MEAN_MOTION":"15.06404566","MEAN_ANOMALY":"274.2391","MEAN_MOTION_DDOT":"0.0000000000000","OBJECT_NAME":"STARLINK-2090","OBJECT_TYPE":"PAYLOAD","GP_ID":"191587361","TLE_LINE1":"1 47677U 21012BK  21346.85510802  .00000391  00000-0  45155-4 0  9999","ELEMENT_SET_NO":"999","SEMIMAJOR_AXIS":"6925.335","TLE_LINE2":"2 47677  53.0546 180.1208 0002217  85.8852 274.2391 15.06404566 46683","CLASSIFICATION_TYPE":"U"},{"RA_OF_ASC_NODE":"180.0000","FILE":"3238376","REV_AT_EPOCH":"4670","NORAD_CAT_ID":"47679","CENTER_NAME":"EARTH","MEAN_ELEMENT_THEORY":"SGP4","BSTAR":"0.00091081000000","DECAY_DATE":null,"RCS_SIZE":"LARGE","PERIOD":"95.598","MEAN_ANOMALY":"270.4660","MEAN_MOTION":"15.06315482","OBJECT_TYPE":"PAYLOAD","OBJECT_NAME":"STARLINK-2095","MEAN_MOTION_DDOT":"0.0000000000000","TLE_LINE2":"2 47679  53.0540 180.0000 0002551  89.6621 270.4660 15.06315482 46703","CLASSIFICATION_TYPE":"U","TLE_LINE1":"1 47679U 21012BM  21346.88366751  .00013280  00000-0  91081-3 0  9995","ELEMENT_SET_NO":"999","SEMIMAJOR_AXIS":"6925.608","GP_ID":"191586107","PERIAPSIS":"545.706","MEAN_MOTION_DOT":"0.00013280","COUNTRY_CODE":"US","ECCENTRICITY":"0.00025510","LAUNCH_DATE":"2021-02-16","TIME_SYSTEM":"UTC","EPOCH":"2021-12-12T21:12:28.872864","REF_FRAME":"TEME","OBJECT_ID":"2021-012BM","APOAPSIS":"549.239","ARG_OF_PERICENTER":"89.6621","SITE":"AFETR","EPHEMERIS_TYPE":"0","INCLINATION":"53.0540"},{"MEAN_MOTION":"15.06402141","MEAN_ANOMALY":"301.5116","NORAD_CAT_ID":"47722","CENTER_NAME":"EARTH","MEAN_ELEMENT_THEORY":"SGP4","BSTAR":"-0.00002572000000","DECAY_DATE":null,"PERIOD":"95.592","RCS_SIZE":"LARGE","RA_OF_ASC_NODE":"307.2890","FILE":"3238133","REV_AT_EPOCH":"4462","CLASSIFICATION_TYPE":"U","TLE_LINE2":"2 47722  53.0570 307.2890 0002050  58.6073 301.5116 15.06402141 44626","ELEMENT_SET_NO":"999","TLE_LINE1":"1 47722U 21017A   21346.37268416 -.00000665  00000-0 -25720-4 0  9995","SEMIMAJOR_AXIS":"6925.342","GP_ID":"191556848","OBJECT_TYPE":"PAYLOAD","OBJECT_NAME":"STARLINK-2068","MEAN_MOTION_DDOT":"0.0000000000000","LAUNCH_DATE":"2021-03-04","ECCENTRICITY":"0.00020500","COUNTRY_CODE":"US","PERIAPSIS":"545.787","MEAN_MOTION_DOT":"-0.00000665","SITE":"AFETR","ARG_OF_PERICENTER":"58.6073","EPHEMERIS_TYPE":"0","INCLINATION":"53.0570","REF_FRAME":"TEME","OBJECT_ID":"2021-017A","APOAPSIS":"548.627","TIME_SYSTEM":"UTC","EPOCH":"2021-12-12T08:56:39.911424"},{"CENTER_NAME":"EARTH","NORAD_CAT_ID":"47723","PERIOD":"95.592","DECAY_DATE":null,"RCS_SIZE":"LARGE","MEAN_ELEMENT_THEORY":"SGP4","BSTAR":"0.00007965200000","FILE":"3238376","RA_OF_ASC_NODE":"239.7466","REV_AT_EPOCH":"4558","MEAN_MOTION":"15.06400481","MEAN_ANOMALY":"291.6775","OBJECT_TYPE":"PAYLOAD","OBJECT_NAME":"STARLINK-2107","MEAN_MOTION_DDOT":"0.0000000000000","TLE_LINE2":"2 47723  53.0546 239.7466 0002764  68.4508 291.6775 15.06400481 45583","CLASSIFICATION_TYPE":"U","GP_ID":"191587110","TLE_LINE1":"1 47723U 21017B   21346.93434866  .00000905  00000-0  79652-4 0  9990","ELEMENT_SET_NO":"999","SEMIMAJOR_AXIS":"6925.347","COUNTRY_CODE":"US","MEAN_MOTION_DOT":"0.00000905","PERIAPSIS":"545.298","LAUNCH_DATE":"2021-03-04","ECCENTRICITY":"0.00027640","OBJECT_ID":"2021-017B","REF_FRAME":"TEME","APOAPSIS":"549.126","TIME_SYSTEM":"UTC","EPOCH":"2021-12-12T22:25:27.724224","SITE":"AFETR","ARG_OF_PERICENTER":"68.4508","INCLINATION":"53.0546","EPHEMERIS_TYPE":"0"},{"ARG_OF_PERICENTER":"66.6462","SITE":"AFETR","EPHEMERIS_TYPE":"0","INCLINATION":"53.0535","REF_FRAME":"TEME","OBJECT_ID":"2021-017C","APOAPSIS":"549.009","TIME_SYSTEM":"UTC","EPOCH":"2021-12-12T21:43:00.123456","LAUNCH_DATE":"2021-03-04","ECCENTRICITY":"0.00025720","COUNTRY_CODE":"US","PERIAPSIS":"545.446","MEAN_MOTION_DOT":"-0.00000834","TLE_LINE2":"2 47724  53.0535 239.8846 0002572  66.6462 293.4797 15.06395487 45540","CLASSIFICATION_TYPE":"U","ELEMENT_SET_NO":"999","TLE_LINE1":"1 47724U 21017C   21346.90486254 -.00000834  00000-0 -37047-4 0  9991","SEMIMAJOR_AXIS":"6925.362","GP_ID":"191587366","OBJECT_TYPE":"PAYLOAD","OBJECT_NAME":"STARLINK-2116","MEAN_MOTION_DDOT":"0.0000000000000","MEAN_MOTION":"15.06395487","MEAN_ANOMALY":"293.4797","NORAD_CAT_ID":"47724","CENTER_NAME":"EARTH","MEAN_ELEMENT_THEORY":"SGP4","BSTAR":"-0.00003704700000","DECAY_DATE":null,"RCS_SIZE":"LARGE","PERIOD":"95.592","RA_OF_ASC_NODE":"239.8846","FILE":"3238376","REV_AT_EPOCH":"4554"},{"APOAPSIS":"548.624","OBJECT_ID":"2021-017D","REF_FRAME":"TEME","EPOCH":"2021-12-12T20:56:33.669888","TIME_SYSTEM":"UTC","INCLINATION":"53.0571","EPHEMERIS_TYPE":"0","ARG_OF_PERICENTER":"54.7502","SITE":"AFETR","COUNTRY_CODE":"US","MEAN_MOTION_DOT":"-0.00000619","PERIAPSIS":"545.827","LAUNCH_DATE":"2021-03-04","ECCENTRICITY":"0.00020190","MEAN_MOTION_DDOT":"0.0000000000000","OBJECT_NAME":"STARLINK-2125","OBJECT_TYPE":"PAYLOAD","GP_ID":"191586112","TLE_LINE1":"1 47725U 21017D   21346.87261192 -.00000619  00000-0 -22639-4 0  9992","ELEMENT_SET_NO":"999","SEMIMAJOR_AXIS":"6925.360","TLE_LINE2":"2 47725  53.0571 310.0415 0002019  54.7502 305.3675 15.06396106 44573","CLASSIFICATION_TYPE":"U","PERIOD":"95.592","DECAY_DATE":null,"RCS_SIZE":"LARGE","BSTAR":"-0.00002263900000","MEAN_ELEMENT_THEORY":"SGP4","CENTER_NAME":"EARTH","NORAD_CAT_ID":"47725","REV_AT_EPOCH":"4457","FILE":"3238376","RA_OF_ASC_NODE":"310.0415","MEAN_MOTION":"15.06396106","MEAN_ANOMALY":"305.3675"},{"NORAD_CAT_ID":"47726","CENTER_NAME":"EARTH","MEAN_ELEMENT_THEORY":"SGP4","BSTAR":"0.00009080800000","DECAY_DATE":null,"PERIOD":"95.592","RCS_SIZE":"MEDIUM","RA_OF_ASC_NODE":"313.0814","FILE":"3238133","REV_AT_EPOCH":"4446","MEAN_MOTION":"15.06403328","MEAN_ANOMALY":"300.7212","OBJECT_TYPE":"PAYLOAD","MEAN_MOTION_DDOT":"0.0000000000000","OBJECT_NAME":"STARLINK-2126","TLE_LINE2":"2 47726  53.0567 313.0814 0002204  59.3994 300.7212 15.06403328 44466","CLASSIFICATION_TYPE":"U","TLE_LINE1":"1 47726U 21017E   21346.19439257  .00001071  00000-0  90808-4 0  9991","SEMIMAJOR_AXIS":"6925.338","ELEMENT_SET_NO":"999","GP_ID":"191556349","COUNTRY_CODE":"US","PERIAPSIS":"545.677","MEAN_MOTION_DOT":"0.00001071","LAUNCH_DATE":"2021-03-04","ECCENTRICITY":"0.00022040","REF_FRAME":"TEME","OBJECT_ID":"2021-017E","APOAPSIS":"548.730","TIME_SYSTEM":"UTC","EPOCH":"2021-12-12T04:39:55.518048","ARG_OF_PERICENTER":"59.3994","SITE":"AFETR","EPHEMERIS_TYPE":"0","INCLINATION":"53.0567"}];
